GSAT0101 (PRN E11)      
1 37846U 11060A   21034.06658330 -.00000049  00000-0  00000-0 0  9991
2 37846  56.7676  34.9547 0004028 320.7140  39.2784  1.70475119 57707
GSAT0102 (PRN E12)      
1 37847U 11060B   21035.16683288 -.00000052  00000-0  00000-0 0  9998
2 37847  56.7679  34.9239 0005813 307.3389  54.0880  1.70475279 57730
GSAT0103 (PRN E19)      
1 38857U 12055A   21034.10818722  .00000022  00000-0  00000-0 0  9997
2 38857  55.0190 155.4334 0002419 246.8566 113.0948  1.70473512 51744
GSAT0104 (PRN E20)      
1 38858U 12055B   21035.21578447  .00000014  00000-0  00000-0 0  9999
2 38858  55.0199 155.4024 0001196 242.3203 117.6433  1.70473427 51766
GSAT0201 (PRN E18)      
1 40128U 14050A   21035.17218118 -.00000096  00000-0  00000-0 0  9991
2 40128  50.5211 352.1344 1651710 106.9185 271.7980  1.85518934 41973
GSAT0202 (PRN E14)      
1 40129U 14050B   21033.81804535 -.00000088  00000-0  00000-0 0  9996
2 40129  50.5547 351.2331 1649164 107.6876 270.9527  1.85519670 44112
GSAT0203 (PRN E26)      
1 40544U 15017A   21033.84777535 -.00000049  00000-0  00000-0 0  9990
2 40544  56.5614  35.0624 0005427 266.9936  92.9663  1.70474736 35782
GSAT0204 (PRN E22)      
1 40545U 15017B   21034.21527541 -.00000050  00000-0  00000-0 0  9995
2 40545  56.5680  35.0691 0003151 251.2207 108.7669  1.70474954 36459
GSAT0205 (PRN E24)      
1 40889U 15045A   21033.87071233  .00000021  00000-0  00000-0 0  9997
2 40889  55.9727 275.7528 0005999  17.0396 343.0523  1.70474633 33595
GSAT0206 (PRN E30)      
1 40890U 15045B   21031.15732989  .00000034  00000-0  00000-0 0  9994
2 40890  55.9754 275.8242 0004170  10.3834 349.7126  1.70474777 33573
GSAT0209 (PRN E09)      
1 41174U 15079A   21034.85038392  .00000017  00000-0  00000-0 0  9995
2 41174  55.0353 155.1127 0003049 318.9094  41.0445  1.70473593 31542
GSAT0208 (PRN E08)      
1 41175U 15079B   21033.89692635  .00000022  00000-0  00000-0 0  9991
2 41175  55.0322 155.1378 0002302 323.1180  36.8433  1.70473580 31952
GSAT0211 (PRN E02)      
1 41549U 16030A   21032.25863169  .00000029  00000-0  00000-0 0  9992
2 41549  56.1174 275.6739 0004513 343.6496  16.4170  1.70474438 29228
GSAT0210 (PRN E01)      
1 41550U 16030B   21034.89781466  .00000020  00000-0  00000-0 0  9996
2 41550  56.1154 275.6028 0002942 325.0062  35.0425  1.70474509 29269
GSAT0207 (PRN E07)      
1 41859U 16069A   21032.79676940  .00000025  00000-0  00000-0 0  9992
2 41859  54.6919 155.4743 0002801 298.9479  60.9977  1.70473528 26127
GSAT0212 (PRN E03)      
1 41860U 16069B   21031.47703448  .00000023  00000-0  00000+0 0  9999
2 41860  54.6901 155.5097 0002051 343.0087  16.9510  1.70473574 26199
GSAT0213 (PRN E04)      
1 41861U 16069C   21034.77566351  .00000018  00000-0  00000-0 0  9991
2 41861  54.6928 155.4225 0002399 261.1497  98.7996  1.70473525 26250
GSAT0214 (PRN E05)      
1 41862U 16069D   21034.33614138  .00000020  00000-0  00000-0 0  9994
2 41862  54.6902 155.4298 0001524 266.9960  92.9633  1.70473671 26234
GSAT0215 (PRN E21)      
1 43055U 17079A   21034.82675179  .00000020  00000-0  00000-0 0  9998
2 43055  56.0907 275.4433 0002317 330.7963  29.2589  1.70473681 19583
GSAT0216 (PRN E25)      
1 43056U 17079B   21035.11934590  .00000020  00000-0  00000-0 0  9997
2 43056  56.0908 275.4347 0003702 307.5552  52.4787  1.70473788 19603
GSAT0217 (PRN E27)      
1 43057U 17079C   21034.75286321  .00000020  00000-0  00000-0 0  9999
2 43057  56.0885 275.4454 0003868 322.3462  37.6951  1.70473709 19583
GSAT0218 (PRN E31)      
1 43058U 17079D   21033.79969404  .00000022  00000-0  00000-0 0  9995
2 43058  56.0903 275.4689 0003948 299.4668  60.5661  1.70473754 19590
GSAT0221 (PRN E15)      
1 43564U 18060A   21031.35179520 -.00000042  00000-0  00000+0 0  9992
2 43564  56.9463  34.8178 0006249 277.9571  81.9988  1.70475827 15715
GSAT0222 (PRN E33)      
1 43565U 18060B   21034.50454874 -.00000050  00000-0  00000+0 0  9990
2 43565  56.9488  34.7315 0005976 285.4086  74.5464  1.70475744 15801
GSAT0219 (PRN E36)      
1 43566U 18060C   21033.55183144 -.00000047  00000-0  00000+0 0  9990
2 43566  56.9493  34.7593 0005660 281.3029  78.6553  1.70475616 15765
GSAT0220 (PRN E13)      
1 43567U 18060D   21032.01195984 -.00000044  00000-0  00000-0 0  9994
2 43567  56.9484  34.8018 0005813 281.4202  78.5393  1.70475599 15720
